ONEWEB-0139             
1 47285U 20100AD  26017.44711168  .00000417  00000+0  11248-2 0  9996
2 47285  87.8927  20.5788 0001737  89.1966 270.9361 13.12443251244954
ONEWEB-0140             
1 47286U 20100AE  26017.55369940 -.00000195  00000+0 -57684-3 0  9996
2 47286  87.8930  20.5454 0001609  89.4557 270.6756 13.12444299244932
ONEWEB-0141             
1 47287U 20100AF  26017.52306799  .00000392  00000+0  10539-2 0  9991
2 47287  87.8927  20.5589 0002017  93.7067 266.4292 13.12442360244919
ONEWEB-0142             
1 47288U 20100AG  26017.51147391  .00000083  00000+0  19562-3 0  9995
2 47288  87.8927  20.5853 0001823 101.9619 258.1714 13.12445880244909
ONEWEB-0143             
1 47289U 20100AH  26017.52152504  .00000362  00000+0  97123-3 0  9998
2 47289  87.8928  20.5790 0001781  88.4023 271.7310 13.12443647244881
ONEWEB-0144             
1 47290U 20100AJ  26017.49269329 -.00000399  00000+0 -11434-2 0  9992
2 47290  87.8929  20.5538 0001535  99.3683 260.7619 13.12441366244802
ONEWEB-0145             
1 47291U 20100AK  26017.54014609  .00000311  00000+0  82893-3 0  9998
2 47291  87.8932  20.5832 0001715  89.6120 270.5205 13.12440847245008
ONEWEB-0146             
1 47292U 20100AL  26017.53677334  .00000437  00000+0  11798-2 0  9992
2 47292  87.8929  20.5696 0001878  77.8460 282.2879 13.12441672244912
ONEWEB-0147             
1 47293U 20100AM  26017.50286186 -.00000242  00000+0 -70697-3 0  9991
2 47293  87.8930  20.5551 0001483  85.5638 274.5660 13.12444242244806
ONEWEB-0115             
1 48042U 21025A   26017.42022735 -.00000129  00000+0 -38934-3 0  9992
2 48042  87.9009 350.1785 0001799  82.1066 278.0267 13.13468701233803
ONEWEB-0152             
1 48043U 21025B   26017.43380844  .00000229  00000+0  59257-3 0  9992
2 48043  87.9005 350.1798 0001813  78.4247 281.7086 13.13470834233765
ONEWEB-0153             
1 48044U 21025C   26017.64032178 -.00000275  00000+0 -78780-3 0  9995
2 48044  87.9004 350.1455 0001751  86.1142 274.0187 13.13471189233789
ONEWEB-0154             
1 48045U 21025D   26017.63693869 -.00000260  00000+0 -74738-3 0  9998
2 48045  87.9006 350.1426 0001695  81.6566 278.4755 13.13470173233744
ONEWEB-0116             
1 48046U 21025E   26017.44734724  .00000339  00000+0  89241-3 0  9994
2 48046  87.9008 350.1660 0001798  78.2274 281.9057 13.13470588233866
ONEWEB-0150             
1 48047U 21025F   26017.42363113 -.00000019  00000+0 -85774-4 0  9998
2 48047  87.9010 350.1671 0001931  86.9481 273.1869 13.13472273233752
ONEWEB-0107             
1 48048U 21025G   26017.42534401  .00000029  00000+0  44279-4 0  9993
2 48048  87.9008 350.1628 0001688  91.7191 268.4131 13.13470402233732
