[{"OBJECT_NAME":"ONEWEB-0139","OBJECT_ID":"2020-100AD","EPOCH":"2026-01-17T10:43:50.449152","MEAN_MOTION":13.12443251,"ECCENTRICITY":0.00017374,"INCLINATION":87.8927,"RA_OF_ASC_NODE":20.5788,"ARG_OF_PERICENTER":89.1966,"MEAN_ANOMALY":270.9361,"EPHEMERIS_TYPE":0,"CLASSIFICATION_TYPE":"U","NORAD_CAT_ID":47285,"ELEMENT_SET_NO":999,"REV_AT_EPOCH":24495,"BSTAR":0.0011248429,"MEAN_MOTION_DOT":4.17e-6,"MEAN_MOTION_DDOT":0},{"OBJECT_NAME":"ONEWEB-0140","OBJECT_ID":"2020-100AE","EPOCH":"2026-01-17T13:17:19.628160","MEAN_MOTION":13.12444299,"ECCENTRICITY":0.00016093,"INCLINATION":87.893,"RA_OF_ASC_NODE":20.5454,"ARG_OF_PERICENTER":89.4557,"MEAN_ANOMALY":270.6756,"EPHEMERIS_TYPE":0,"CLASSIFICATION_TYPE":"U","NORAD_CAT_ID":47286,"ELEMENT_SET_NO":999,"REV_AT_EPOCH":24493,"BSTAR":-0.0005768381,"MEAN_MOTION_DOT":-1.95e-6,"MEAN_MOTION_DDOT":0},{"OBJECT_NAME":"ONEWEB-0141","OBJECT_ID":"2020-100AF","EPOCH":"2026-01-17T12:33:13.074336","MEAN_MOTION":13.1244236,"ECCENTRICITY":0.00020175,"INCLINATION":87.8927,"RA_OF_ASC_NODE":20.5589,"ARG_OF_PERICENTER":93.7067,"MEAN_ANOMALY":266.4292,"EPHEMERIS_TYPE":0,"CLASSIFICATION_TYPE":"U","NORAD_CAT_ID":47287,"ELEMENT_SET_NO":999,"REV_AT_EPOCH":24491,"BSTAR":0.0010539479,"MEAN_MOTION_DOT":3.92e-6,"MEAN_MOTION_DDOT":0},{"OBJECT_NAME":"ONEWEB-0142","OBJECT_ID":"2020-100AG","EPOCH":"2026-01-17T12:16:31.345824","MEAN_MOTION":13.1244588,"ECCENTRICITY":0.00018239,"INCLINATION":87.8927,"RA_OF_ASC_NODE":20.5853,"ARG_OF_PERICENTER":101.9619,"MEAN_ANOMALY":258.1714,"EPHEMERIS_TYPE":0,"CLASSIFICATION_TYPE":"U","NORAD_CAT_ID":47288,"ELEMENT_SET_NO":999,"REV_AT_EPOCH":24490,"BSTAR":0.00019561978,"MEAN_MOTION_DOT":8.3e-7,"MEAN_MOTION_DDOT":0},{"OBJECT_NAME":"ONEWEB-0143","OBJECT_ID":"2020-100AH","EPOCH":"2026-01-17T12:30:59.763456","MEAN_MOTION":13.12443647,"ECCENTRICITY":0.00017812,"INCLINATION":87.8928,"RA_OF_ASC_NODE":20.579,"ARG_OF_PERICENTER":88.4023,"MEAN_ANOMALY":271.731,"EPHEMERIS_TYPE":0,"CLASSIFICATION_TYPE":"U","NORAD_CAT_ID":47289,"ELEMENT_SET_NO":999,"REV_AT_EPOCH":24488,"BSTAR":0.00097123195,"MEAN_MOTION_DOT":3.62e-6,"MEAN_MOTION_DDOT":0},{"OBJECT_NAME":"ONEWEB-0144","OBJECT_ID":"2020-100AJ","EPOCH":"2026-01-17T11:49:28.700256","MEAN_MOTION":13.12441366,"ECCENTRICITY":0.00015354,"INCLINATION":87.8929,"RA_OF_ASC_NODE":20.5538,"ARG_OF_PERICENTER":99.3683,"MEAN_ANOMALY":260.7619,"EPHEMERIS_TYPE":0,"CLASSIFICATION_TYPE":"U","NORAD_CAT_ID":47290,"ELEMENT_SET_NO":999,"REV_AT_EPOCH":24480,"BSTAR":-0.001143408,"MEAN_MOTION_DOT":-3.99e-6,"MEAN_MOTION_DDOT":0},{"OBJECT_NAME":"ONEWEB-0145","OBJECT_ID":"2020-100AK","EPOCH":"2026-01-17T12:57:48.622176","MEAN_MOTION":13.12440847,"ECCENTRICITY":0.00017154,"INCLINATION":87.8932,"RA_OF_ASC_NODE":20.5832,"ARG_OF_PERICENTER":89.612,"MEAN_ANOMALY":270.5205,"EPHEMERIS_TYPE":0,"CLASSIFICATION_TYPE":"U","NORAD_CAT_ID":47291,"ELEMENT_SET_NO":999,"REV_AT_EPOCH":24500,"BSTAR":0.00082892999,"MEAN_MOTION_DOT":3.11e-6,"MEAN_MOTION_DDOT":0},{"OBJECT_NAME":"ONEWEB-0146","OBJECT_ID":"2020-100AL","EPOCH":"2026-01-17T12:52:57.216576","MEAN_MOTION":13.12441672,"ECCENTRICITY":0.00018789,"INCLINATION":87.8929,"RA_OF_ASC_NODE":20.5696,"ARG_OF_PERICENTER":77.846,"MEAN_ANOMALY":282.2879,"EPHEMERIS_TYPE":0,"CLASSIFICATION_TYPE":"U","NORAD_CAT_ID":47292,"ELEMENT_SET_NO":999,"REV_AT_EPOCH":24491,"BSTAR":0.001179789,"MEAN_MOTION_DOT":4.37e-6,"MEAN_MOTION_DDOT":0},{"OBJECT_NAME":"ONEWEB-0147","OBJECT_ID":"2020-100AM","EPOCH":"2026-01-17T12:04:07.264704","MEAN_MOTION":13.12444242,"ECCENTRICITY":0.00014833,"INCLINATION":87.893,"RA_OF_ASC_NODE":20.5551,"ARG_OF_PERICENTER":85.5638,"MEAN_ANOMALY":274.566,"EPHEMERIS_TYPE":0,"CLASSIFICATION_TYPE":"U","NORAD_CAT_ID":47293,"ELEMENT_SET_NO":999,"REV_AT_EPOCH":24480,"BSTAR":-0.00070696821,"MEAN_MOTION_DOT":-2.42e-6,"MEAN_MOTION_DDOT":0},{"OBJECT_NAME":"ONEWEB-0115","OBJECT_ID":"2021-025A","EPOCH":"2026-01-17T10:05:07.643040","MEAN_MOTION":13.13468701,"ECCENTRICITY":0.00017999,"INCLINATION":87.9009,"RA_OF_ASC_NODE":350.1785,"ARG_OF_PERICENTER":82.1066,"MEAN_ANOMALY":278.0267,"EPHEMERIS_TYPE":0,"CLASSIFICATION_TYPE":"U","NORAD_CAT_ID":48042,"ELEMENT_SET_NO":999,"REV_AT_EPOCH":23380,"BSTAR":-0.00038933802,"MEAN_MOTION_DOT":-1.29e-6,"MEAN_MOTION_DDOT":0},{"OBJECT_NAME":"ONEWEB-0152","OBJECT_ID":"2021-025B","EPOCH":"2026-01-17T10:24:41.049216","MEAN_MOTION":13.13470834,"ECCENTRICITY":0.00018136,"INCLINATION":87.9005,"RA_OF_ASC_NODE":350.1798,"ARG_OF_PERICENTER":78.4247,"MEAN_ANOMALY":281.7086,"EPHEMERIS_TYPE":0,"CLASSIFICATION_TYPE":"U","NORAD_CAT_ID":48043,"ELEMENT_SET_NO":999,"REV_AT_EPOCH":23376,"BSTAR":0.00059257383,"MEAN_MOTION_DOT":2.29e-6,"MEAN_MOTION_DDOT":0},{"OBJECT_NAME":"ONEWEB-0153","OBJECT_ID":"2021-025C","EPOCH":"2026-01-17T15:22:03.801792","MEAN_MOTION":13.13471189,"ECCENTRICITY":0.00017517,"INCLINATION":87.9004,"RA_OF_ASC_NODE":350.1455,"ARG_OF_PERICENTER":86.1142,"MEAN_ANOMALY":274.0187,"EPHEMERIS_TYPE":0,"CLASSIFICATION_TYPE":"U","NORAD_CAT_ID":48044,"ELEMENT_SET_NO":999,"REV_AT_EPOCH":23378,"BSTAR":-0.00078779607,"MEAN_MOTION_DOT":-2.75e-6,"MEAN_MOTION_DDOT":0},{"OBJECT_NAME":"ONEWEB-0154","OBJECT_ID":"2021-025D","EPOCH":"2026-01-17T15:17:11.502816","MEAN_MOTION":13.13470173,"ECCENTRICITY":0.00016959,"INCLINATION":87.9006,"RA_OF_ASC_NODE":350.1426,"ARG_OF_PERICENTER":81.6566,"MEAN_ANOMALY":278.4755,"EPHEMERIS_TYPE":0,"CLASSIFICATION_TYPE":"U","NORAD_CAT_ID":48045,"ELEMENT_SET_NO":999,"REV_AT_EPOCH":23374,"BSTAR":-0.00074738303,"MEAN_MOTION_DOT":-2.6e-6,"MEAN_MOTION_DDOT":0},{"OBJECT_NAME":"ONEWEB-0116","OBJECT_ID":"2021-025E","EPOCH":"2026-01-17T10:44:10.801536","MEAN_MOTION":13.13470588,"ECCENTRICITY":0.00017986,"INCLINATION":87.9008,"RA_OF_ASC_NODE":350.166,"ARG_OF_PERICENTER":78.2274,"MEAN_ANOMALY":281.9057,"EPHEMERIS_TYPE":0,"CLASSIFICATION_TYPE":"U","NORAD_CAT_ID":48046,"ELEMENT_SET_NO":999,"REV_AT_EPOCH":23386,"BSTAR":0.0008924066,"MEAN_MOTION_DOT":3.39e-6,"MEAN_MOTION_DDOT":0},{"OBJECT_NAME":"ONEWEB-0150","OBJECT_ID":"2021-025F","EPOCH":"2026-01-17T10:10:01.729632","MEAN_MOTION":13.13472273,"ECCENTRICITY":0.00019317,"INCLINATION":87.901,"RA_OF_ASC_NODE":350.1671,"ARG_OF_PERICENTER":86.9481,"MEAN_ANOMALY":273.1869,"EPHEMERIS_TYPE":0,"CLASSIFICATION_TYPE":"U","NORAD_CAT_ID":48047,"ELEMENT_SET_NO":999,"REV_AT_EPOCH":23375,"BSTAR":-8.5773696e-5,"MEAN_MOTION_DOT":-1.9e-7,"MEAN_MOTION_DDOT":0},{"OBJECT_NAME":"ONEWEB-0107","OBJECT_ID":"2021-025G","EPOCH":"2026-01-17T10:12:29.722464","MEAN_MOTION":13.13470402,"ECCENTRICITY":0.00016887,"INCLINATION":87.9008,"RA_OF_ASC_NODE":350.1628,"ARG_OF_PERICENTER":91.7191,"MEAN_ANOMALY":268.4131,"EPHEMERIS_TYPE":0,"CLASSIFICATION_TYPE":"U","NORAD_CAT_ID":48048,"ELEMENT_SET_NO":999,"REV_AT_EPOCH":23373,"BSTAR":4.4279373e-5,"MEAN_MOTION_DOT":2.9e-7,"MEAN_MOTION_DDOT":0}]
